[{"OBJECT_NAME":"YAOGAN-34 03","OBJECT_ID":"2022-154A","EPOCH":"2026-03-09T22:37:29.642880","MEAN_MOTION":13.45434187,"ECCENTRICITY":0.00677226,"INCLINATION":63.4057,"RA_OF_ASC_NODE":157.086,"ARG_OF_PERICENTER":354.5229,"MEAN_ANOMALY":5.5049,"EPHEMERIS_TYPE":0,"CLASSIFICATION_TYPE":"U","NORAD_CAT_ID":54249,"ELEMENT_SET_NO":999,"REV_AT_EPOCH":16290,"BSTAR":4.1425338e-5,"MEAN_MOTION_DOT":-6.5e-7,"MEAN_MOTION_DDOT":0},{"OBJECT_NAME":"UNKNOWN","OBJECT_ID":"","EPOCH":"2026-02-28T08:59:35.063232","MEAN_MOTION":13.46165054,"ECCENTRICITY":0.00520272,"INCLINATION":100.4357,"RA_OF_ASC_NODE":297.4068,"ARG_OF_PERICENTER":265.3379,"MEAN_ANOMALY":94.1807,"EPHEMERIS_TYPE":0,"CLASSIFICATION_TYPE":"U","NORAD_CAT_ID":270194,"ELEMENT_SET_NO":999,"REV_AT_EPOCH":30669,"BSTAR":0.0026641497,"MEAN_MOTION_DOT":1.56e-5,"MEAN_MOTION_DDOT":0}]
